ONEWEB-0389             
1 50469U 21132A   25273.80075556  .00000059  00000+0  11828-3 0  9994
2 50469  87.9078  57.4554 0001882  85.0380 275.0967 13.17647556183922
ONEWEB-0390             
1 50470U 21132B   25273.80244720  .00000096  00000+0  21473-3 0  9995
2 50470  87.9075  57.4612 0001908 100.0075 260.1272 13.17650408183928
ONEWEB-0391             
1 50471U 21132C   25273.80414627  .00000072  00000+0  15340-3 0  9991
2 50471  87.9070  57.4726 0002438  82.6491 277.4918 13.17648391183922
ONEWEB-0392             
1 50472U 21132D   25273.83451470  .00000062  00000+0  12660-3 0  9993
2 50472  87.9078  57.4129 0001954  86.5842 273.5513 13.17648305183960
ONEWEB-0393             
1 50473U 21132E   25273.65578153  .00000009  00000+0 -98056-5 0  9999
2 50473  87.9082  57.4686 0001776  91.0472 269.0863 13.17647401183937
ONEWEB-0394             
1 50474U 21132F   25273.82784056  .00000057  00000+0  11093-3 0  9996
2 50474  87.9216  26.9396 0001764  94.2062 265.9272 13.18685578187417
ONEWEB-0395             
1 50475U 21132G   25273.83432169  .00000242  00000+0  64666-3 0  9993
2 50475  87.8790  72.7382 0001915  93.9249 266.2098 13.11413714181721
ONEWEB-0396             
1 50476U 21132H   25273.74536194  .00000094  00000+0  20636-3 0  9991
2 50476  87.9218  26.9680 0001769  95.6528 264.4806 13.18685304187441
ONEWEB-0397             
1 50477U 21132J   25273.83607927  .00000061  00000+0  12327-3 0  9997
2 50477  87.9217  26.9512 0001591  94.2642 265.8672 13.18687021187433
ONEWEB-0398             
1 50478U 21132K   25273.72579387 -.00000861  00000+0 -24646-2 0  9990
2 50478  87.8799  72.7263 0001839  98.9947 261.1389 13.11422081181607
ONEWEB-0399             
1 50479U 21132L   25273.40705728 -.00000402  00000+0 -11699-2 0  9991
2 50479  87.8790  72.8106 0001852  76.3087 283.8247 13.11418062181558
ONEWEB-0400             
1 50480U 21132M   25273.73875480  .00000026  00000+0  32531-4 0  9992
2 50480  87.9216  26.9601 0001880 104.7457 255.3883 13.18687322187417
ONEWEB-0401             
1 50481U 21132N   25273.78329073  .00000000  00000+0 -33223-4 0  9992
2 50481  87.9219  26.9483 0001531  99.4969 260.6337 13.18688379187427
ONEWEB-0402             
1 50482U 21132P   25273.74700941  .00000049  00000+0  90999-4 0  9991
2 50482  87.9218  26.9485 0001116  96.5516 263.5743 13.18687723187441
ONEWEB-0403             
1 50483U 21132Q   25273.69587146  .00000070  00000+0  14362-3 0  9999
2 50483  87.9218  26.9782 0001805  97.6655 262.4683 13.18687439187392
ONEWEB-0404             
1 50484U 21132R   25273.84617469 -.00000289  00000+0 -85071-3 0  9998
2 50484  87.8792  72.7299 0001933  83.9532 276.1816 13.11413883181707
ONEWEB-0405             
1 50485U 21132S   25273.78660433  .00000006  00000+0 -16410-4 0  9999
2 50485  87.9216  26.9450 0001493  95.3250 264.8053 13.18687082187800
ONEWEB-0406             
1 50486U 21132T   25273.77670144  .00001048  00000+0  26259-2 0  9995
2 50486  87.9212  26.9699 0002331  95.6157 264.5241 13.18692898187439
ONEWEB-0407             
1 50487U 21132U   25273.84597679  .00000021  00000+0  20916-4 0  9991
2 50487  87.9217  26.9418 0001569 103.3301 256.8006 13.18687527187384
ONEWEB-0409             
1 50488U 21132V   25273.84448243 -.00000197  00000+0 -59147-3 0  9997
2 50488  87.8796  72.6905 0001976  90.6532 269.4822 13.11413537181595
ONEWEB-0412             
1 50489U 21132W   25273.83443604  .00000021  00000+0  21529-4 0  9991
2 50489  87.9215  26.9565 0001425  96.4976 263.6319 13.18685524187476
ONEWEB-0413             
1 50490U 21132X   25273.83938627  .00000059  00000+0  11659-3 0  9990
2 50490  87.9219  26.9727 0001395 103.9945 256.1343 13.18686390187418
ONEWEB-0414             
1 50491U 21132Y   25273.74866175  .00000092  00000+0  20047-3 0  9997
2 50491  87.9217  26.9493 0001598  93.6706 266.4609 13.18685837187438
ONEWEB-0417             
1 50492U 21132Z   25273.83278506  .00000032  00000+0  48328-4 0  9990
2 50492  87.9216  26.9662 0001947  95.8925 264.2429 13.18685084187420
ONEWEB-0418             
1 50493U 21132AA  25273.84255223  .00000006  00000+0 -17499-4 0  9990
2 50493  87.9218  26.9498 0002162  91.6756 268.4624 13.18686239187488
ONEWEB-0419             
1 50494U 21132AB  25273.78495605  .00000036  00000+0  57584-4 0  9995
2 50494  87.9214  26.9614 0002054 102.2746 257.8616 13.18686849187393
ONEWEB-0420             
1 50495U 21132AC  25273.82618742 -.00000010  00000+0 -57450-4 0  9996
2 50495  87.9218  26.9640 0001477 109.6535 250.4756 13.18685431187392
ONEWEB-0421             
1 50496U 21132AD  25273.74371398  .00000062  00000+0  12459-3 0  9995
2 50496  87.9217  26.9742 0001537  91.9995 268.1313 13.18686629187424
ONEWEB-0424             
1 50497U 21132AE  25273.77999668  .00000066  00000+0  13438-3 0  9997
2 50497  87.9218  26.9622 0002089 105.2256 254.9107 13.18687713187457
ONEWEB-0426             
1 50498U 21132AF  25273.74042052  .00000113  00000+0  25335-3 0  9993
2 50498  87.9216  26.9613 0001829  77.3775 282.7562 13.18685630187395
ONEWEB-0427             
1 50499U 21132AG  25273.77833880  .00000047  00000+0  87455-4 0  9992
2 50499  87.9215  26.9434 0001867  93.0231 267.1115 13.18688192187421
ONEWEB-0429             
1 50500U 21132AH  25273.84102896  .00000072  00000+0  15030-3 0  9996
2 50500  87.9215  26.9610 0001672 105.0000 255.1317 13.18685807187401
ONEWEB-0430             
1 50501U 21132AJ  25273.82948635  .00000048  00000+0  87996-4 0  9998
2 50501  87.9216  26.9580 0001875 108.3574 251.7763 13.18685592187448
ONEWEB-0432             
1 50502U 21132AK  25273.78502847  .00000027  00000+0  35267-4 0  9996
2 50502  87.9210  26.9431 0002670  98.2192 261.9243 13.18692066187399
ONEWEB-0440             
1 50503U 21132AL  25273.69751938  .00000029  00000+0  42027-4 0  9998
2 50503  87.9221  26.9740 0001315  95.7933 264.3349 13.18687002187371
ONEWEB-0450             
1 50504U 21132AM  25273.84279773  .00000019  00000+0  14208-4 0  9997
2 50504  87.9215  26.9697 0001654 110.4872 249.6438 13.18689226187420
ONEWEB-0410             
1 51622U 22012A   25273.66746506  .00000031  00000+0  46066-4 0  9991
2 51622  87.9078  57.4525 0002734  68.9778 291.1646 13.17648905179523
ONEWEB-0411             
1 51623U 22012B   25273.77930212  .00000705  00000+0  19821-2 0  9998
2 51623  87.8741  87.9906 0001895 106.4365 253.6971 13.10374787175312
ONEWEB-0415             
1 51624U 22012C   25273.77597981  .00000544  00000+0  15220-2 0  9991
2 51624  87.8739  87.9933 0001790  98.7163 261.4167 13.10374741175317
ONEWEB-0416             
1 51625U 22012D   25273.78759998  .00000766  00000+0  21575-2 0  9997
2 51625  87.8739  88.0114 0001736  89.9710 270.1617 13.10372228175350
ONEWEB-0422             
1 51626U 22012E   25273.82945338  .00000080  00000+0  17374-3 0  9990
2 51626  87.9078  57.4252 0001033 111.2060 248.9182 13.17649288179655
ONEWEB-0423             
1 51627U 22012F   25273.44302461 -.00000013  00000+0 -66748-4 0  9991
2 51627  87.9078  57.5118 0001571  93.5482 266.5829 13.17647983179491
ONEWEB-0425             
1 51628U 22012G   25273.72119831  .00000407  00000+0  11300-2 0  9997
2 51628  87.8734  87.9938 0001777  78.8168 281.3159 13.10370622175349
ONEWEB-0428             
1 51629U 22012H   25273.77763971  .00000729  00000+0  20518-2 0  9991
2 51629  87.8741  88.0040 0001517  93.4806 266.6494 13.10375279175316
ONEWEB-0431             
1 51630U 22012J   25273.74760139 -.00000541  00000+0 -15868-2 0  9999
2 51630  87.8748  87.9835 0001780 112.2741 247.8576 13.10373101175364
ONEWEB-0434             
1 51631U 22012K   25273.72451569  .00000291  00000+0  79769-3 0  9993
2 51631  87.8737  88.0289 0001911  71.0662 289.0673 13.10370878175340
ONEWEB-0435             
1 51632U 22012L   25273.50373523 -.00000372  00000+0 -11030-2 0  9991
2 51632  87.8735  88.0642 0001243  94.0145 266.1125 13.10370575175309
ONEWEB-0436             
1 51633U 22012M   25273.66239769  .00000094  00000+0  20798-3 0  9993
2 51633  87.9077  57.4471 0001572 102.3747 257.7561 13.17647669179500
ONEWEB-0438             
1 51634U 22012N   25273.71622102  .00000668  00000+0  18782-2 0  9993
2 51634  87.8735  88.0226 0001736  83.9673 276.1653 13.10371370175366
ONEWEB-0439             
1 51635U 22012P   25273.71953992  .00000385  00000+0  10662-2 0  9993
2 51635  87.8736  88.0106 0001575  88.7257 271.4050 13.10369692175348
ONEWEB-0442             
1 51636U 22012Q   25273.65479829  .00000135  00000+0  31514-3 0  9992
2 51636  87.9068  57.5021 0002213  83.5072 276.6311 13.17650633179495
ONEWEB-0443             
1 51637U 22012R   25273.82607184 -.00000013  00000+0 -65998-4 0  9990
2 51637  87.9066  57.4749 0001562  83.7930 276.3380 13.17652461179563
ONEWEB-0444             
1 51638U 22012S   25273.78593937  .00000823  00000+0  23224-2 0  9997
2 51638  87.8737  87.9970 0001500  87.0481 273.0818 13.10373465175363
ONEWEB-0445             
1 51639U 22012T   25273.73114166 -.00000186  00000+0 -56965-3 0  9999
2 51639  87.8749  87.9639 0001828  91.5690 268.5647 13.10371338175360
ONEWEB-0446             
1 51640U 22012U   25273.78428235  .00000750  00000+0  21106-2 0  9994
2 51640  87.8739  88.0133 0001829  93.6630 266.4706 13.10373418175353
ONEWEB-0448             
1 51641U 22012V   25273.48382853  .00000585  00000+0  16408-2 0  9992
2 51641  87.8738  88.0727 0001554  88.3186 271.8119 13.10371396175287
ONEWEB-0449             
1 51642U 22012W   25273.71788167  .00000512  00000+0  14310-2 0  9997
2 51642  87.8733  87.9964 0001818  74.8112 285.3216 13.10370911175321
ONEWEB-0451             
1 51643U 22012X   25273.65900979  .00000002  00000+0 -27236-4 0  9996
2 51643  87.9080  57.4416 0001711  91.7916 268.3412 13.17647804179489
ONEWEB-0452             
1 51644U 22012Y   25273.65733363  .00000053  00000+0  10208-3 0  9993
2 51644  87.9069  57.5028 0001612  85.3156 274.8159 13.17648567179490
